{"type": "FeatureCollection", "features": [ {"type": "Feature", "properties": {"norad_id": 17070, "name": "POLAR BEAR", "group": "nnss", "lat": -71.86577162789594, "lon": -177.19598467574068, "alt_km": 1015.1731331352803, "timestamp": "2025-12-07T18:50:16.984330+00:00", "meta": {"OBJECT_NAME": "POLAR BEAR", "OBJECT_ID": "1986-088A", "EPOCH": "2025-12-07T07:48:17.127072", "MEAN_MOTION": 13.75249186, "ECCENTRICITY": 0.00406211, "INCLINATION": 89.6178, "RA_OF_ASC_NODE": 183.9903, "ARG_OF_PERICENTER": 134.9705, "MEAN_ANOMALY": 38.3571, "EPHEMERIS_TYPE": 0, "CLASSIFICATION_TYPE": "U", "NORAD_CAT_ID": 17070, "ELEMENT_SET_NO": 999, "REV_AT_EPOCH": 95904, "BSTAR": 0.00016551922, "MEAN_MOTION_DOT": 1.71e-06, "MEAN_MOTION_DDOT": 0}, "tle": {"line1": "1 17070U 86088A   25341.32519823  .00000171  00000+0  16552-3 0  9993", "line2": "2 17070  89.6178 183.9903 0040621 134.9705  38.3571 13.75249186959041"}}, "geometry": {"type": "Point", "coordinates": [-177.19598467574068, -71.86577162789594]}}, {"type": "Feature", "properties": {"norad_id": 18361, "name": "OSCAR 27", "group": "nnss", "lat": 6.725228912234327, "lon": 79.04268206000252, "alt_km": 1140.4570005573187, "timestamp": "2025-12-07T18:50:16.984340+00:00", "meta": {"OBJECT_NAME": "OSCAR 27", "OBJECT_ID": "1987-080A", "EPOCH": "2025-12-07T06:18:18.896544", "MEAN_MOTION": 13.44904968, "ECCENTRICITY": 0.01025646, "INCLINATION": 90.3741, "RA_OF_ASC_NODE": 79.0673, "ARG_OF_PERICENTER": 239.6904, "MEAN_ANOMALY": 119.4067, "EPHEMERIS_TYPE": 0, "CLASSIFICATION_TYPE": "U", "NORAD_CAT_ID": 18361, "ELEMENT_SET_NO": 999, "REV_AT_EPOCH": 87483, "BSTAR": 0.00030119903, "MEAN_MOTION_DOT": 1.9e-06, "MEAN_MOTION_DDOT": 0}, "tle": {"line1": "1 18361U 87080A   25341.26271871  .00000190  00000+0  30120-3 0  9999", "line2": "2 18361  90.3741  79.0673 0102564 239.6904 119.4067 13.44904968874834"}}, "geometry": {"type": "Point", "coordinates": [79.04268206000252, 6.725228912234327]}}, {"type": "Feature", "properties": {"norad_id": 18362, "name": "OSCAR 29", "group": "nnss", "lat": 27.144596856601343, "lon": 79.3527771518708, "alt_km": 1136.3137610492868, "timestamp": "2025-12-07T18:50:16.984350+00:00", "meta": {"OBJECT_NAME": "OSCAR 29", "OBJECT_ID": "1987-080B", "EPOCH": "2025-12-07T06:20:27.910752", "MEAN_MOTION": 13.44446856, "ECCENTRICITY": 0.01037416, "INCLINATION": 90.3753, "RA_OF_ASC_NODE": 79.5258, "ARG_OF_PERICENTER": 263.0926, "MEAN_ANOMALY": 124.4441, "EPHEMERIS_TYPE": 0, "CLASSIFICATION_TYPE": "U", "NORAD_CAT_ID": 18362, "ELEMENT_SET_NO": 999, "REV_AT_EPOCH": 87436, "BSTAR": 0.00026525984, "MEAN_MOTION_DOT": 1.67e-06, "MEAN_MOTION_DDOT": 0}, "tle": {"line1": "1 18362U 87080B   25341.26421193  .00000167  00000+0  26526-3 0  9993", "line2": "2 18362  90.3753  79.5258 0103741 263.0926 124.4441 13.44446856874362"}}, "geometry": {"type": "Point", "coordinates": [79.3527771518708, 27.144596856601343]}}, {"type": "Feature", "properties": {"norad_id": 19070, "name": "OSCAR 23", "group": "nnss", "lat": 83.70496114037985, "lon": -160.84164132981383, "alt_km": 1163.5151405420174, "timestamp": "2025-12-07T18:50:16.984360+00:00", "meta": {"OBJECT_NAME": "OSCAR 23", "OBJECT_ID": "1988-033A", "EPOCH": "2025-12-07T02:12:39.212928", "MEAN_MOTION": 13.27785953, "ECCENTRICITY": 0.01890572, "INCLINATION": 90.3217, "RA_OF_ASC_NODE": 16.2175, "ARG_OF_PERICENTER": 195.6411, "MEAN_ANOMALY": 193.1177, "EPHEMERIS_TYPE": 0, "CLASSIFICATION_TYPE": "U", "NORAD_CAT_ID": 19070, "ELEMENT_SET_NO": 999, "REV_AT_EPOCH": 82178, "BSTAR": 0.0002681236, "MEAN_MOTION_DOT": 1.41e-06, "MEAN_MOTION_DDOT": 0}, "tle": {"line1": "1 19070U 88033A   25341.09212052  .00000141  00000+0  26812-3 0  9992", "line2": "2 19070  90.3217  16.2175 0189057 195.6411 193.1177 13.27785953821785"}}, "geometry": {"type": "Point", "coordinates": [-160.84164132981383, 83.70496114037985]}}, {"type": "Feature", "properties": {"norad_id": 19071, "name": "OSCAR 32", "group": "nnss", "lat": -26.812191156241546, "lon": -163.79214833308427, "alt_km": 1032.6225752480232, "timestamp": "2025-12-07T18:50:16.984370+00:00", "meta": {"OBJECT_NAME": "OSCAR 32", "OBJECT_ID": "1988-033B", "EPOCH": "2025-12-07T00:02:44.266272", "MEAN_MOTION": 13.27952912, "ECCENTRICITY": 0.01878765, "INCLINATION": 90.3222, "RA_OF_ASC_NODE": 16.3463, "ARG_OF_PERICENTER": 182.7412, "MEAN_ANOMALY": 241.8891, "EPHEMERIS_TYPE": 0, "CLASSIFICATION_TYPE": "U", "NORAD_CAT_ID": 19071, "ELEMENT_SET_NO": 999, "REV_AT_EPOCH": 82189, "BSTAR": 0.00019386039, "MEAN_MOTION_DOT": 1.05e-06, "MEAN_MOTION_DDOT": 0}, "tle": {"line1": "1 19071U 88033B   25341.00190123  .00000105  00000+0  19386-3 0  9996", "line2": "2 19071  90.3222  16.3463 0187876 182.7412 241.8891 13.27952912821895"}}, "geometry": {"type": "Point", "coordinates": [-163.79214833308427, -26.812191156241546]}}, {"type": "Feature", "properties": {"norad_id": 19223, "name": "NOVA 2", "group": "nnss", "lat": 47.20424013203615, "lon": -101.73542476448644, "alt_km": 1174.3825470076745, "timestamp": "2025-12-07T18:50:16.984380+00:00", "meta": {"OBJECT_NAME": "NOVA 2", "OBJECT_ID": "1988-052A", "EPOCH": "2025-12-07T05:36:18.839232", "MEAN_MOTION": 13.22935007, "ECCENTRICITY": 0.0031038, "INCLINATION": 89.9871, "RA_OF_ASC_NODE": 78.2792, "ARG_OF_PERICENTER": 31.766, "MEAN_ANOMALY": 356.2071, "EPHEMERIS_TYPE": 0, "CLASSIFICATION_TYPE": "U", "NORAD_CAT_ID": 19223, "ELEMENT_SET_NO": 999, "REV_AT_EPOCH": 80875, "BSTAR": 0.00031111275, "MEAN_MOTION_DOT": 1.4e-06, "MEAN_MOTION_DDOT": 0}, "tle": {"line1": "1 19223U 88052A   25341.23355138  .00000140  00000+0  31111-3 0  9999", "line2": "2 19223  89.9871  78.2792 0031038  31.7660 356.2071 13.22935007808758"}}, "geometry": {"type": "Point", "coordinates": [-101.73542476448644, 47.20424013203615]}}, {"type": "Feature", "properties": {"norad_id": 19419, "name": "OSCAR 25", "group": "nnss", "lat": -37.24742394758837, "lon": -159.79887398949478, "alt_km": 1054.1472800068914, "timestamp": "2025-12-07T18:50:16.984390+00:00", "meta": {"OBJECT_NAME": "OSCAR 25", "OBJECT_ID": "1988-074A", "EPOCH": "2025-12-07T03:31:09.598368", "MEAN_MOTION": 13.42621772, "ECCENTRICITY": 0.00942661, "INCLINATION": 90.0351, "RA_OF_ASC_NODE": 20.2256, "ARG_OF_PERICENTER": 262.0834, "MEAN_ANOMALY": 112.5363, "EPHEMERIS_TYPE": 0, "CLASSIFICATION_TYPE": "U", "NORAD_CAT_ID": 19419, "ELEMENT_SET_NO": 999, "REV_AT_EPOCH": 82565, "BSTAR": 0.0002591724, "MEAN_MOTION_DOT": 1.59e-06, "MEAN_MOTION_DDOT": 0}, "tle": {"line1": "1 19419U 88074A   25341.14663887  .00000159  00000+0  25917-3 0  9990", "line2": "2 19419  90.0351  20.2256 0094266 262.0834 112.5363 13.42621772825655"}}, "geometry": {"type": "Point", "coordinates": [-159.79887398949478, -37.24742394758837]}}, {"type": "Feature", "properties": {"norad_id": 19420, "name": "OSCAR 31", "group": "nnss", "lat": 78.12758842755643, "lon": -159.24773655681227, "alt_km": 1153.7380648541075, "timestamp": "2025-12-07T18:50:16.984400+00:00", "meta": {"OBJECT_NAME": "OSCAR 31", "OBJECT_ID": "1988-074B", "EPOCH": "2025-12-07T02:22:05.956320", "MEAN_MOTION": 13.42583263, "ECCENTRICITY": 0.00925318, "INCLINATION": 90.0368, "RA_OF_ASC_NODE": 20.5746, "ARG_OF_PERICENTER": 256.3306, "MEAN_ANOMALY": 131.1736, "EPHEMERIS_TYPE": 0, "CLASSIFICATION_TYPE": "U", "NORAD_CAT_ID": 19420, "ELEMENT_SET_NO": 999, "REV_AT_EPOCH": 82575, "BSTAR": 0.00022226093, "MEAN_MOTION_DOT": 1.37e-06, "MEAN_MOTION_DDOT": 0}, "tle": {"line1": "1 19420U 88074B   25341.09868005  .00000137  00000+0  22226-3 0  9991", "line2": "2 19420  90.0368  20.5746 0092531 256.3306 131.1736 13.42583263825759"}}, "geometry": {"type": "Point", "coordinates": [-159.24773655681227, 78.12758842755643]}}]}